OBJECT_NAME,OBJECT_ID,EPOCH,MEAN_MOTION,ECCENTRICITY,INCLINATION,RA_OF_ASC_NODE,ARG_OF_PERICENTER,MEAN_ANOMALY,EPHEMERIS_TYPE,CLASSIFICATION_TYPE,NORAD_CAT_ID,ELEMENT_SET_NO,REV_AT_EPOCH,BSTAR,MEAN_MOTION_DOT,MEAN_MOTION_DDOT
COSMO-SKYMED 1,2007-023A,2026-06-08T12:18:34.439904,14.97061174,.0001133,97.8857,351.2969,80.8199,279.3151,0,U,31598,999,2849,.19483E-3,.2185E-4,0
COSMOS 2428,2007-029A,2026-06-08T00:15:51.494688,14.12930113,.0007234,70.9375,13.7451,152.6375,207.5129,0,U,31792,999,97685,-.67939122E-4,-.174E-5,0
SL-16 R/B,2007-029B,2026-06-07T22:15:12.125088,14.14849857,.00022393,70.9759,342.6951,258.5790,207.0203,0,U,31793,999,97813,.185801E-3,.311E-5,0
KORONAS-FOTON,2009-003A,2026-06-08T11:13:55.479936,15.45541908,.0010712,82.4293,181.3537,176.4948,183.6377,0,U,33504,999,95975,.2052E-3,.9911E-4,0
CZ-2C R/B,2011-030B,2026-06-08T11:21:10.560096,14.81450395,.0053625,97.8651,115.0170,55.7794,58.2832,0,U,37731,999,80353,.1736E-3,.1338E-4,0
H-2A R/B,2012-025E,2026-06-08T11:02:29.846688,14.95667928,.0044286,98.4814,133.8863,17.3790,342.8933,0,U,38341,999,76178,.27735E-3,.3075E-4,0
SHIJIAN-16 (SJ-16),2013-057A,2026-06-08T12:37:10.111872,14.92592511,.0016945,74.9735,13.0884,250.9066,109.0288,0,U,39358,999,68505,.82217E-4,.818E-5,0
SL-4 R/B,2014-021B,2026-06-08T12:12:08.021088,15.41771019,.0091642,51.6058,253.2847,74.4037,286.7040,0,U,39679,999,67027,.22119E-3,.10612E-3,0
ALOS-2,2014-029A,2026-06-08T13:11:42.169632,14.79471931,.000167,97.9209,256.8374,90.8878,269.2525,0,U,39766,999,65030,.19696E-3,.142E-4,0
YAOGAN-29,2015-069A,2026-06-08T13:00:18.266976,14.83077548,.0002951,98.0033,188.1612,66.7415,293.4108,0,U,41038,999,56934,.21653E-4,.122E-5,0
ASTRO-H (HITOMI),2016-012A,2026-06-08T05:53:28.773888,15.10472221,.0009609,30.9977,131.9342,164.4427,195.6508,0,U,41337,999,56593,.13591E-3,.239E-4,0
HXMT (HUIYAN),2017-034A,2026-06-08T12:24:45.730944,15.18416131,.0030173,43.0131,231.3169,89.9042,270.5264,0,U,42758,999,49634,.21464E-3,.4305E-4,0
SAOCOM 1A,2018-076A,2026-06-08T11:52:19.532064,14.82170384,.0001541,97.8889,346.3698,79.6333,280.5053,0,U,43641,999,41481,.10996E-3,.824E-5,0
H-2A R/B,2018-084L,2026-06-08T04:34:21.215712,15.44806429,.0024268,98.8591,36.1169,70.4945,289.8918,0,U,43682,999,41973,.36277E-3,.17078E-3,0
SAOCOM 1B,2020-059A,2026-06-08T12:37:21.710208,14.82162599,.0001457,97.8890,345.4949,77.3125,282.8251,0,U,46265,999,31220,.14114E-4,.6E-6,0
CSS (TIANHE),2021-035A,2026-06-08T01:57:54.676512,15.60427341,.00087027,41.4696,17.3987,5.5904,354.5031,0,U,48274,999,29174,.30374166E-3,.25465E-3,0
COSMOS 2550,2021-056A,2026-06-08T13:07:49.044288,15.33750705,.0008699,67.1417,126.0416,265.9700,94.0460,0,U,48865,999,27739,.1719E-3,.5454E-4,0
CZ-2C R/B,2022-058K,2026-06-08T09:52:34.241952,15.61262962,.0033034,50.1844,209.1611,231.2479,128.5541,0,U,52794,999,22427,.34632E-3,.30391E-3,0
CZ-2C R/B,2022-132E,2026-06-08T11:45:21.985920,15.70495804,.0016992,97.2912,166.1324,110.5537,249.7550,0,U,54039,999,20458,.48246E-3,.59768E-3,0
GSLV R/B,2022-138AN,2026-06-08T10:18:04.353120,14.97219181,.0021507,87.3799,135.9257,174.1252,186.0237,0,U,54149,999,19750,.2054E-3,.2415E-4,0
XRISM,2023-137A,2026-06-08T09:54:54.228096,15.12389074,.000791,31.0026,56.4327,236.9290,123.0589,0,U,57800,999,15153,.26689E-3,.4849E-4,0
ACS3,2024-077B,2026-06-08T09:01:40.038240,13.93892229,.0051443,97.1680,80.1321,68.2245,292.4385,0,U,59588,999,10681,.19853E-1,.26547E-3,0
CZ-8A R/B,2025-231K,2026-06-08T10:58:53.003424,14.30152525,.0116475,50.0043,76.4554,193.2724,166.5119,0,U,66004,999,3369,.49826E-4,-.24E-6,0
SZ-21 MODULE,2025-246C,2026-06-06T07:35:07.958112,15.75457395,.00071848,41.4728,14.9847,283.9983,76.0062,0,U,66515,999,3202,.36001641E-3,.56445E-3,0
